{
  "type": "FeatureCollection",
  "features": [
    {
      "type": "Feature",
      "properties": {
        "norad_id": 37533,
        "name": "COSMOS 2251 DEB",
        "group": "cosmos-2251-debris",
        "lat": -35.000786374819995,
        "lon": 11.647834952999176,
        "alt_km": 749.5145559558159,
        "timestamp": "2025-12-19T08:58:49.734849+00:00",
        "meta_object_name": "COSMOS 2251 DEB",
        "meta_object_id": "1993-036BNN",
        "meta_epoch": "2025-12-17T06:38:38.162976",
        "meta_mean_motion": 14.12190824,
        "meta_eccentricity": 0.0157786,
        "meta_inclination": 74.0692,
        "meta_ra_of_asc_node": 183.8069,
        "meta_arg_of_pericenter": 239.4795,
        "meta_mean_anomaly": 119.0691,
        "meta_ephemeris_type": 0,
        "meta_classification_type": "U",
        "meta_norad_cat_id": 37533,
        "meta_element_set_no": 999,
        "meta_rev_at_epoch": 62985,
        "meta_bstar": 0.0010470743,
        "meta_mean_motion_dot": 2.138e-05,
        "meta_mean_motion_ddot": 0,
        "tle_line1": "1 37533U 93036BNN 25351.27683059  .00002138  00000+0  10471-2 0  9996",
        "tle_line2": "2 37533  74.0692 183.8069 0157786 239.4795 119.0691 14.12190824629858"
      },
      "geometry": {
        "type": "Point",
        "coordinates": [
          11.647834952999176,
          -35.000786374819995
        ]
      }
    },
    {
      "type": "Feature",
      "properties": {
        "norad_id": 37535,
        "name": "COSMOS 2251 DEB",
        "group": "cosmos-2251-debris",
        "lat": 15.695214104616461,
        "lon": -123.75504059349038,
        "alt_km": 682.5858234365578,
        "timestamp": "2025-12-19T08:58:49.734860+00:00",
        "meta_object_name": "COSMOS 2251 DEB",
        "meta_object_id": "1993-036BNQ",
        "meta_epoch": "2025-12-18T14:42:12.921984",
        "meta_mean_motion": 14.58494464,
        "meta_eccentricity": 0.00274746,
        "meta_inclination": 74.024,
        "meta_ra_of_asc_node": 62.3124,
        "meta_arg_of_pericenter": 200.7826,
        "meta_mean_anomaly": 286.0711,
        "meta_ephemeris_type": 0,
        "meta_classification_type": "U",
        "meta_norad_cat_id": 37535,
        "meta_element_set_no": 999,
        "meta_rev_at_epoch": 85410,
        "meta_bstar": 0.00050914659,
        "meta_mean_motion_dot": 2.347e-05,
        "meta_mean_motion_ddot": 0,
        "tle_line1": "1 37535U 93036BNQ 25352.61264956  .00002347  00000+0  50915-3 0  9998",
        "tle_line2": "2 37535  74.0240  62.3124 0027474 200.7826 286.0711 14.58494464854101"
      },
      "geometry": {
        "type": "Point",
        "coordinates": [
          -123.75504059349038,
          15.695214104616461
        ]
      }
    },
    {
      "type": "Feature",
      "properties": {
        "norad_id": 37537,
        "name": "COSMOS 2251 DEB",
        "group": "cosmos-2251-debris",
        "lat": -32.50030764231012,
        "lon": 83.42384064066367,
        "alt_km": 808.6028482367547,
        "timestamp": "2025-12-19T08:58:49.734870+00:00",
        "meta_object_name": "COSMOS 2251 DEB",
        "meta_object_id": "1993-036BNS",
        "meta_epoch": "2025-12-18T00:15:20.074464",
        "meta_mean_motion": 14.37498757,
        "meta_eccentricity": 0.00505516,
        "meta_inclination": 74.0117,
        "meta_ra_of_asc_node": 255.4114,
        "meta_arg_of_pericenter": 34.2207,
        "meta_mean_anomaly": 326.2186,
        "meta_ephemeris_type": 0,
        "meta_classification_type": "U",
        "meta_norad_cat_id": 37537,
        "meta_element_set_no": 999,
        "meta_rev_at_epoch": 85109,
        "meta_bstar": 0.00017725401,
        "meta_mean_motion_dot": 5.12e-06,
        "meta_mean_motion_ddot": 0,
        "tle_line1": "1 37537U 93036BNS 25352.01064901  .00000512  00000+0  17725-3 0  9996",
        "tle_line2": "2 37537  74.0117 255.4114 0050551  34.2207 326.2186 14.37498757851099"
      },
      "geometry": {
        "type": "Point",
        "coordinates": [
          83.42384064066367,
          -32.50030764231012
        ]
      }
    },
    {
      "type": "Feature",
      "properties": {
        "norad_id": 37546,
        "name": "COSMOS 2251 DEB",
        "group": "cosmos-2251-debris",
        "lat": -58.3771306127117,
        "lon": -67.35799185199086,
        "alt_km": 637.0772668004647,
        "timestamp": "2025-12-19T08:58:49.734892+00:00",
        "meta_object_name": "COSMOS 2251 DEB",
        "meta_object_id": "1993-036BPB",
        "meta_epoch": "2025-12-18T05:56:47.088672",
        "meta_mean_motion": 14.80729839,
        "meta_eccentricity": 0.00053391,
        "meta_inclination": 74.0228,
        "meta_ra_of_asc_node": 87.1348,
        "meta_arg_of_pericenter": 89.0723,
        "meta_mean_anomaly": 271.1065,
        "meta_ephemeris_type": 0,
        "meta_classification_type": "U",
        "meta_norad_cat_id": 37546,
        "meta_element_set_no": 999,
        "meta_rev_at_epoch": 65969,
        "meta_bstar": 0.0021105873,
        "meta_mean_motion_dot": 0.00016258,
        "meta_mean_motion_ddot": 0,
        "tle_line1": "1 37546U 93036BPB 25352.24776723  .00016258  00000+0  21106-2 0  9994",
        "tle_line2": "2 37546  74.0228  87.1348 0005339  89.0723 271.1065 14.80729839659698"
      },
      "geometry": {
        "type": "Point",
        "coordinates": [
          -67.35799185199086,
          -58.3771306127117
        ]
      }
    },
    {
      "type": "Feature",
      "properties": {
        "norad_id": 37959,
        "name": "COSMOS 2251 DEB",
        "group": "cosmos-2251-debris",
        "lat": -71.3515459971266,
        "lon": -77.529102678379,
        "alt_km": 694.9903959969142,
        "timestamp": "2025-12-19T08:58:49.734903+00:00",
        "meta_object_name": "COSMOS 2251 DEB",
        "meta_object_id": "1993-036BPJ",
        "meta_epoch": "2025-12-16T04:11:40.477056",
        "meta_mean_motion": 14.58168105,
        "meta_eccentricity": 0.00576225,
        "meta_inclination": 74.0114,
        "meta_ra_of_asc_node": 50.3978,
        "meta_arg_of_pericenter": 192.4748,
        "meta_mean_anomaly": 198.948,
        "meta_ephemeris_type": 0,
        "meta_classification_type": "U",
        "meta_norad_cat_id": 37959,
        "meta_element_set_no": 999,
        "meta_rev_at_epoch": 80177,
        "meta_bstar": 0.00044823071,
        "meta_mean_motion_dot": 2.084e-05,
        "meta_mean_motion_ddot": 0,
        "tle_line1": "1 37959U 93036BPJ 25350.17477404  .00002084  00000+0  44823-3 0  9990",
        "tle_line2": "2 37959  74.0114  50.3978 0057622 192.4748 198.9480 14.58168105801772"
      },
      "geometry": {
        "type": "Point",
        "coordinates": [
          -77.529102678379,
          -71.3515459971266
        ]
      }
    },
    {
      "type": "Feature",
      "properties": {
        "norad_id": 37960,
        "name": "COSMOS 2251 DEB",
        "group": "cosmos-2251-debris",
        "lat": -0.9828810795744644,
        "lon": 174.9853727105097,
        "alt_km": 1044.4321037456975,
        "timestamp": "2025-12-19T08:58:49.734913+00:00",
        "meta_object_name": "COSMOS 2251 DEB",
        "meta_object_id": "1993-036BPK",
        "meta_epoch": "2025-12-16T19:35:27.740256",
        "meta_mean_motion": 14.07867991,
        "meta_eccentricity": 0.02485393,
        "meta_inclination": 74.059,
        "meta_ra_of_asc_node": 179.7478,
        "meta_arg_of_pericenter": 197.3915,
        "meta_mean_anomaly": 161.86,
        "meta_ephemeris_type": 0,
        "meta_classification_type": "U",
        "meta_norad_cat_id": 37960,
        "meta_element_set_no": 999,
        "meta_rev_at_epoch": 77463,
        "meta_bstar": 0.00064570376,
        "meta_mean_motion_dot": 1.428e-05,
        "meta_mean_motion_ddot": 0,
        "tle_line1": "1 37960U 93036BPK 25350.81629329  .00001428  00000+0  64570-3 0  9990",
        "tle_line2": "2 37960  74.0590 179.7478 0248539 197.3915 161.8600 14.07867991774632"
      },
      "geometry": {
        "type": "Point",
        "coordinates": [
          174.9853727105097,
          -0.9828810795744644
        ]
      }
    },
    {
      "type": "Feature",
      "properties": {
        "norad_id": 37961,
        "name": "COSMOS 2251 DEB",
        "group": "cosmos-2251-debris",
        "lat": -37.37965713469268,
        "lon": 111.86576101485912,
        "alt_km": 718.5977759581529,
        "timestamp": "2025-12-19T08:58:49.734923+00:00",
        "meta_object_name": "COSMOS 2251 DEB",
        "meta_object_id": "1993-036BPL",
        "meta_epoch": "2025-12-13T03:18:27.462240",
        "meta_mean_motion": 14.57979799,
        "meta_eccentricity": 0.00406759,
        "meta_inclination": 74.0407,
        "meta_ra_of_asc_node": 136.3488,
        "meta_arg_of_pericenter": 216.8805,
        "meta_mean_anomaly": 142.9561,
        "meta_ephemeris_type": 0,
        "meta_classification_type": "U",
        "meta_norad_cat_id": 37961,
        "meta_element_set_no": 999,
        "meta_rev_at_epoch": 80071,
        "meta_bstar": 0.001729191,
        "meta_mean_motion_dot": 8.011e-05,
        "meta_mean_motion_ddot": 0,
        "tle_line1": "1 37961U 93036BPL 25347.13781785  .00008011  00000+0  17292-2 0  9990",
        "tle_line2": "2 37961  74.0407 136.3488 0040675 216.8805 142.9561 14.57979799800716"
      },
      "geometry": {
        "type": "Point",
        "coordinates": [
          111.86576101485912,
          -37.37965713469268
        ]
      }
    }
  ]
}